ONEWEB-0144             
1 47290U 20100AJ  24155.44496822 -.00000315  00000+0 -90933-3 0  9998
2 47290  87.8928 138.7303 0002123  76.0430 284.0935 13.12524355167016
ONEWEB-0145             
1 47291U 20100AK  24155.64482563  .00000399  00000+0  10716-2 0  9998
2 47291  87.8928 138.7146 0002099  82.5385 277.5982 13.12581956167238
ONEWEB-0146             
1 47292U 20100AL  24155.48824763  .00000371  00000+0  99657-3 0  9995
2 47292  87.8929 138.7289 0002066  98.6739 261.4624 13.12440246167122
ONEWEB-0147             
1 47293U 20100AM  24155.45460994  .00000048  00000+0  96865-4 0  9995
2 47293  87.8924 138.7302 0002352  82.9442 277.1954 13.12507942167014
ONEWEB-0115             
1 48042U 21025A   24155.37737321  .00000053  00000+0  10982-3 0  9998
2 48042  87.8914 108.2906 0002136  87.0163 273.1211 13.13469430155956
ONEWEB-0152             
1 48043U 21025B   24155.39007080  .00000298  00000+0  78008-3 0  9997
2 48043  87.8919 108.2851 0002115  85.3162 274.8209 13.13468661155914
ONEWEB-0153             
1 48044U 21025C   24155.59638222 -.00000232  00000+0 -67142-3 0  9995
2 48044  87.8921 108.2314 0002071  79.7459 280.3903 13.13469061155939
ONEWEB-0154             
1 48045U 21025D   24155.59320821 -.00000261  00000+0 -74872-3 0  9999
2 48045  87.8921 108.2440 0002159  82.1590 277.9784 13.13468856155908
